NORAD_CAT_ID,OBJECT_NAME,OBJECT_TYPE,EPOCH,MEAN_MOTION,ECCENTRICITY,INCLINATION,RA_OF_ASC_NODE,ARG_OF_PERICENTER,MEAN_ANOMALY,BSTAR,MEAN_MOTION_DOT,MEAN_MOTION_DDOT,TLE_LINE0,TLE_LINE1,TLE_LINE2,SEMIMAJOR_AXIS,PERIOD,APOGEE,PERIGEE,DECAYED
51133.0,STARLINK-3356,PAYLOAD,2022-12-10 16:42:46,15.0881626,0.0002885,53.2138,218.7726,30.6594,329.4566,0.0001958,2.827e-05,0.0,0 STARLINK-3356,1 51133U 22005AF  22344.69636747  .00002827  00000-0  19580-3 0  9990,2 51133  53.2138 218.7726 0002885  30.6594 329.4566 15.08816260 50951,6917.953,95.439,541.814,537.822,0.0
51133.0,STARLINK-3356,PAYLOAD,2022-12-10 19:53:32,15.08819169,0.0002852,53.2137,218.178,30.4352,329.6805,0.0004256,6.488e-05,0.0,0 STARLINK-3356,1 51133U 22005AF  22344.82884984  .00006488  00000-0  42560-3 0  9994,2 51133  53.2137 218.1780 0002852  30.4352 329.6805 15.08819169 49854,6917.944,95.439,541.7819999999998,537.836,0.0
51133.0,STARLINK-3356,PAYLOAD,2022-12-11 00:39:42,15.08822695,0.0002852,53.2135,217.2861,30.8259,329.29,0.00077144,0.00012005,0.0,0 STARLINK-3356,1 51133U 22005AF  22345.02757398  .00012005  00000-0  77144-3 0  9993,2 51133  53.2135 217.2861 0002852  30.8259 329.2900 15.08822695 49885,6917.933000000001,95.439,541.771,537.825,0.0
51133.0,STARLINK-3356,PAYLOAD,2022-12-11 19:44:20,15.08844532,0.0002889,53.213,213.7176,32.4945,327.6224,0.00077873,0.00012129,0.0,0 STARLINK-3356,1 51133U 22005AF  22345.82245580  .00012129  00000-0  77873-3 0  9992,2 51133  53.2130 213.7176 0002889  32.4945 327.6224 15.08844532 51125,6917.8669999999975,95.437,541.73,537.7330000000002,0.0
51133.0,STARLINK-3356,PAYLOAD,2022-12-12 00:30:29,15.0884992,0.0002913,53.213,212.8254,32.451,327.6661,0.00079492,0.00012389,0.0,0 STARLINK-3356,1 51133U 22005AF  22346.02117463  .00012389  00000-0  79492-3 0  9990,2 51133  53.2130 212.8254 0002913  32.4510 327.6661 15.08849920 50038,6917.85,95.437,541.73,537.7,0.0
51133.0,STARLINK-3356,PAYLOAD,2022-12-12 21:10:29,15.08872427,0.0003017,53.2129,208.9594,34.0702,326.0484,0.00077127,0.00012019,0.0,0 STARLINK-3356,1 51133U 22005AF  22346.88228121  .00012019  00000-0  77127-3 0  9991,2 51133  53.2129 208.9594 0003017  34.0702 326.0484 15.08872427 50164,6917.781,95.436,541.7330000000002,537.559,0.0
51133.0,STARLINK-3356,PAYLOAD,2022-12-13 00:21:15,15.08855713,0.0003049,53.2129,208.3645,34.6083,325.5107,0.00042331,6.458e-05,0.0,0 STARLINK-3356,1 51133U 22005AF  22347.01476838  .00006458  00000-0  42331-3 0  9996,2 51133  53.2129 208.3645 0003049  34.6083 325.5107 15.08855713 51300,6917.831999999999,95.437,541.807,537.5880000000002,0.0
51133.0,STARLINK-3356,PAYLOAD,2022-12-13 08:18:11,15.08856258,0.0003201,53.2131,206.8779,35.2742,324.8461,0.00037445,5.679e-05,0.0,0 STARLINK-3356,1 51133U 22005AF  22347.34596589  .00005679  00000-0  37445-3 0  9992,2 51133  53.2131 206.8779 0003201  35.2742 324.8461 15.08856258 50234,6917.831,95.437,541.91,537.481,0.0
51133.0,STARLINK-3356,PAYLOAD,2022-12-14 00:12:02,15.08845235,0.0002816,53.2131,203.903,37.7038,322.4151,1.4375e-05,-6e-07,0.0,0 STARLINK-3356,1 51133U 22005AF  22348.00836538 -.00000060  00000-0  14375-4 0  9995,2 51133  53.2131 203.9030 0002816  37.7038 322.4151 15.08845235 51456,6917.864000000001,95.437,541.677,537.781,0.0
51133.0,STARLINK-3356,PAYLOAD,2022-12-14 08:08:58,15.08848571,0.0002765,53.2135,202.416,38.0075,322.1112,6.8198e-05,7.97e-06,0.0,0 STARLINK-3356,1 51133U 22005AF  22348.33956309  .00000797  00000-0  68198-4 0  9998,2 51133  53.2135 202.4160 0002765  38.0075 322.1112 15.08848571 50387,6917.854,95.437,541.632,537.806,0.0
51133.0,STARLINK-3356,PAYLOAD,2022-12-14 20:52:03,15.08855484,0.0003263,53.2125,200.0402,33.4289,326.6908,-0.00033677,-5.647e-05,0.0,0 STARLINK-3356,1 51133U 22005AF  22348.86948009 -.00005647  00000-0 -33677-3 0  9998,2 51133  53.2125 200.0402 0003263  33.4289 326.6908 15.08855484 50461,6917.833000000001,95.437,541.955,537.441,0.0
51133.0,STARLINK-3356,PAYLOAD,2022-12-15 14:21:17,15.0884285,0.0003021,53.2148,196.7673,35.2598,324.8594,0.00010986,1.46e-05,0.0,0 STARLINK-3356,1 51133U 22005AF  22349.59812312  .00001460  00000-0  10986-3 0  9991,2 51133  53.2148 196.7673 0003021  35.2598 324.8594 15.08842850 51692,6917.871999999999,95.437,541.827,537.6469999999998,0.0
51133.0,STARLINK-3356,PAYLOAD,2022-12-15 20:42:50,15.08845194,0.0003057,53.2139,195.5775,36.3019,323.818,0.00014069,1.952e-05,0.0,0 STARLINK-3356,1 51133U 22005AF  22349.86308235  .00001952  00000-0  14069-3 0  9997,2 51133  53.2139 195.5775 0003057  36.3019 323.8180 15.08845194 50616,6917.865,95.437,541.844,537.615,0.0
51133.0,STARLINK-3356,PAYLOAD,2022-12-16 06:15:08,15.08851153,0.0003052,53.2146,193.793,37.0619,323.0584,0.00011635,1.564e-05,0.0,0 STARLINK-3356,1 51133U 22005AF  22350.26051588  .00001564  00000-0  11635-3 0  9994,2 51133  53.2146 193.7930 0003052  37.0619 323.0584 15.08851153 50674,6917.846,95.437,541.823,537.6,0.0
51133.0,STARLINK-3356,PAYLOAD,2022-12-16 17:22:51,15.08840035,0.0003078,53.2146,191.7114,37.9831,322.1377,5.3757e-05,5.67e-06,0.0,0 STARLINK-3356,1 51133U 22005AF  22350.72420264  .00000567  00000-0  53757-4 0  9990,2 51133  53.2146 191.7114 0003078  37.9831 322.1377 15.08840035 51868,6917.88,95.438,541.875,537.616,0.0
51133.0,STARLINK-3356,PAYLOAD,2022-12-16 18:58:14,15.08838474,0.000308,53.2146,191.414,37.7852,322.3356,3.8084e-05,3.17e-06,0.0,0 STARLINK-3356,1 51133U 22005AF  22350.79044377  .00000317  00000-0  38084-4 0  9993,2 51133  53.2146 191.4140 0003080  37.7852 322.3356 15.08838474 50758,6917.885,95.438,541.881,537.619,0.0
51133.0,STARLINK-3356,PAYLOAD,2022-12-17 06:05:56,15.08836811,0.0003107,53.2145,189.3324,39.017,321.1045,6.7208e-05,7.81e-06,0.0,0 STARLINK-3356,1 51133U 22005AF  22351.25412490  .00000781  00000-0  67208-4 0  9995,2 51133  53.2145 189.3324 0003107  39.0170 321.1045 15.08836811 50828,6917.89,95.438,541.905,537.606,0.0
51133.0,STARLINK-3356,PAYLOAD,2022-12-17 17:13:39,15.08827801,0.0003097,53.2145,187.2511,40.6067,319.5156,-7.323300000000001e-05,-1.454e-05,0.0,0 STARLINK-3356,1 51133U 22005AF  22351.71781598 -.00001454  00000-0 -73233-4 0  9999,2 51133  53.2145 187.2511 0003097  40.6067 319.5156 15.08827801 52010,6917.918000000002,95.438,541.925,537.64,0.0
51133.0,STARLINK-3356,PAYLOAD,2022-12-17 18:49:02,15.08826898,0.00031,53.2146,186.9537,40.5329,319.5893,-8.350299999999999e-05,-1.617e-05,0.0,0 STARLINK-3356,1 51133U 22005AF  22351.78405713 -.00001617  00000-0 -83503-4 0  9990,2 51133  53.2146 186.9537 0003100  40.5329 319.5893 15.08826898 50909,6917.92,95.438,541.93,537.641,0.0
51133.0,STARLINK-3356,PAYLOAD,2022-12-18 12:18:17,15.08828318,0.000302,53.215,183.6822,40.9872,319.1346,-1.5256e-05,-5.31e-06,0.0,0 STARLINK-3356,1 51133U 22005AF  22352.51269769 -.00000531  00000-0 -15256-4 0  9995,2 51133  53.2150 183.6822 0003020  40.9872 319.1346 15.08828318 51014,6917.916,95.438,541.87,537.692,0.0
51133.0,STARLINK-3356,PAYLOAD,2022-12-18 20:15:12,15.0882946,0.0003026,53.2148,182.1953,40.4412,319.6805,-6.5353999999999984e-06,-3.93e-06,0.0,0 STARLINK-3356,1 51133U 22005AF  22352.84389886 -.00000393  00000-0 -65354-5 0  9995,2 51133  53.2148 182.1953 0003026  40.4412 319.6805 15.08829460 51060,6917.913000000001,95.438,541.871,537.684,0.0
51133.0,STARLINK-3356,PAYLOAD,2022-12-18 23:25:59,15.08829864,0.0003036,53.2148,181.6006,40.7651,319.3568,-2.642e-06,-3.31e-06,0.0,0 STARLINK-3356,1 51133U 22005AF  22352.97637943 -.00000331  00000-0 -26420-5 0  9992,2 51133  53.2148 181.6006 0003036  40.7651 319.3568 15.08829864 52200,6917.911,95.438,541.877,537.6759999999998,0.0
51133.0,STARLINK-3356,PAYLOAD,2022-12-19 07:22:54,15.08831929,0.0003058,53.2149,180.1139,40.5887,319.5333,1.696e-05,-1.9e-07,0.0,0 STARLINK-3356,1 51133U 22005AF  22353.30757991 -.00000019  00000-0  16960-4 0  9995,2 51133  53.2149 180.1139 0003058  40.5887 319.5333 15.08831929 51133,6917.905,95.438,541.886,537.655,0.0
51133.0,STARLINK-3356,PAYLOAD,2022-12-19 18:30:36,15.08830322,0.0003088,53.2148,178.0318,40.3285,319.7935,0.00010942,1.453e-05,0.0,0 STARLINK-3356,1 51133U 22005AF  22353.77126146  .00001453  00000-0  10942-3 0  9993,2 51133  53.2148 178.0318 0003088  40.3285 319.7935 15.08830322 51204,6917.91,95.438,541.911,537.639,0.0
51133.0,STARLINK-3356,PAYLOAD,2022-12-20 05:38:18,15.08835602,0.000311,53.2149,175.9502,41.3501,318.7726,0.00013716,1.895e-05,0.0,0 STARLINK-3356,1 51133U 22005AF  22354.23494032  .00001895  00000-0  13716-3 0  9999,2 51133  53.2149 175.9502 0003110  41.3501 318.7726 15.08835602 52398,6917.894,95.438,541.91,537.607,0.0
51133.0,STARLINK-3356,PAYLOAD,2022-12-20 11:59:51,15.08838595,0.0003119,53.2149,174.7606,42.19,317.9331,0.00011981,1.619e-05,0.0,0 STARLINK-3356,1 51133U 22005AF  22354.49990023  .00001619  00000-0  11981-3 0  9994,2 51133  53.2149 174.7606 0003119  42.1900 317.9331 15.08838595 51319,6917.885,95.438,541.9069999999998,537.592,0.0
51133.0,STARLINK-3356,PAYLOAD,2022-12-21 05:29:05,15.08845676,0.0003202,53.215,171.4897,43.6785,316.446,0.00015169,2.127e-05,0.0,0 STARLINK-3356,1 51133U 22005AF  22355.22853473  .00002127  00000-0  15169-3 0  9990,2 51133  53.2150 171.4897 0003202  43.6785 316.4460 15.08845676 52548,6917.863,95.437,541.943,537.513,0.0
51133.0,STARLINK-3356,PAYLOAD,2022-12-21 11:50:37,15.08848492,0.0003206,53.2149,170.2999,44.3923,315.7326,0.00015185,2.13e-05,0.0,0 STARLINK-3356,1 51133U 22005AF  22355.49349218  .00002130  00000-0  15185-3 0  9998,2 51133  53.2149 170.2999 0003206  44.3923 315.7326 15.08848492 51464,6917.854,95.437,541.937,537.502,0.0
51133.0,STARLINK-3356,PAYLOAD,2022-12-21 19:47:33,15.08839798,0.000329,53.2159,168.8155,37.7094,322.4128,0.00016644,2.361e-05,0.0,0 STARLINK-3356,1 51133U 22005AF  22355.82469549  .00002361  00000-0  16644-3 0  9992,2 51133  53.2159 168.8155 0003290  37.7094 322.4128 15.08839798 52634,6917.880999999999,95.438,542.0219999999998,537.47,0.0
